{
  "type": "FeatureCollection",
  "features": [
    {
      "type": "Feature",
      "properties": {
        "norad_id": 41948,
        "name": "CARTOSAT-2D",
        "group": "resource",
        "lat": -76.29768876416148,
        "lon": 84.56294549445994,
        "alt_km": 518.1625265449111,
        "timestamp": "2025-12-20T18:51:31.375499+00:00",
        "meta_object_name": "CARTOSAT-2D",
        "meta_object_id": "2017-008A",
        "meta_epoch": "2025-12-20T14:27:43.342272",
        "meta_mean_motion": 15.19334127,
        "meta_eccentricity": 0.00053145,
        "meta_inclination": 97.4383,
        "meta_ra_of_asc_node": 51.9812,
        "meta_arg_of_pericenter": 137.9421,
        "meta_mean_anomaly": 222.2222,
        "meta_ephemeris_type": 0,
        "meta_classification_type": "U",
        "meta_norad_cat_id": 41948,
        "meta_element_set_no": 999,
        "meta_rev_at_epoch": 49046,
        "meta_bstar": 0.00025831036,
        "meta_mean_motion_dot": 5.391e-05,
        "meta_mean_motion_ddot": 0,
        "tle_line1": "1 41948U 17008A   25354.60258498  .00005391  00000+0  25831-3 0  9992",
        "tle_line2": "2 41948  97.4383  51.9812 0005314 137.9421 222.2222 15.19334127490461"
      },
      "geometry": {
        "type": "Point",
        "coordinates": [
          84.56294549445994,
          -76.29768876416148
        ]
      }
    },
    {
      "type": "Feature",
      "properties": {
        "norad_id": 42063,
        "name": "SENTINEL-2B",
        "group": "resource",
        "lat": -24.98172874937089,
        "lon": -116.91026209539544,
        "alt_km": 794.9074270012916,
        "timestamp": "2025-12-20T18:51:31.375509+00:00",
        "meta_object_name": "SENTINEL-2B",
        "meta_object_id": "2017-013A",
        "meta_epoch": "2025-12-20T14:32:46.402368",
        "meta_mean_motion": 14.30814642,
        "meta_eccentricity": 0.00012026,
        "meta_inclination": 98.5715,
        "meta_ra_of_asc_node": 66.9422,
        "meta_arg_of_pericenter": 91.5789,
        "meta_mean_anomaly": 268.5532,
        "meta_ephemeris_type": 0,
        "meta_classification_type": "U",
        "meta_norad_cat_id": 42063,
        "meta_element_set_no": 999,
        "meta_rev_at_epoch": 45910,
        "meta_bstar": 0.00016994022,
        "meta_mean_motion_dot": 4.02e-06,
        "meta_mean_motion_ddot": 0,
        "tle_line1": "1 42063U 17013A   25354.60609262  .00000402  00000+0  16994-3 0  9994",
        "tle_line2": "2 42063  98.5715  66.9422 0001202  91.5789 268.5532 14.30814642459108"
      },
      "geometry": {
        "type": "Point",
        "coordinates": [
          -116.91026209539544,
          -24.98172874937089
        ]
      }
    },
    {
      "type": "Feature",
      "properties": {
        "norad_id": 42767,
        "name": "CARTOSAT-2E",
        "group": "resource",
        "lat": -10.644909629464038,
        "lon": -129.14224229410175,
        "alt_km": 510.6764020899045,
        "timestamp": "2025-12-20T18:51:31.375519+00:00",
        "meta_object_name": "CARTOSAT-2E",
        "meta_object_id": "2017-036C",
        "meta_epoch": "2025-12-20T14:51:39.014784",
        "meta_mean_motion": 15.19276366,
        "meta_eccentricity": 0.00024927,
        "meta_inclination": 97.4553,
        "meta_ra_of_asc_node": 52.1037,
        "meta_arg_of_pericenter": 198.0254,
        "meta_mean_anomaly": 162.0893,
        "meta_ephemeris_type": 0,
        "meta_classification_type": "U",
        "meta_norad_cat_id": 42767,
        "meta_element_set_no": 999,
        "meta_rev_at_epoch": 47103,
        "meta_bstar": 0.00031055988,
        "meta_mean_motion_dot": 6.484e-05,
        "meta_mean_motion_ddot": 0,
        "tle_line1": "1 42767U 17036C   25354.61920156  .00006484  00000+0  31056-3 0  9991",
        "tle_line2": "2 42767  97.4553  52.1037 0002492 198.0254 162.0893 15.19276366471035"
      },
      "geometry": {
        "type": "Point",
        "coordinates": [
          -129.14224229410175,
          -10.644909629464038
        ]
      }
    },
    {
      "type": "Feature",
      "properties": {
        "norad_id": 42920,
        "name": "FORMOSAT-5",
        "group": "resource",
        "lat": 65.8540857844707,
        "lon": 50.07282488042677,
        "alt_km": 722.9401071725051,
        "timestamp": "2025-12-20T18:51:31.375529+00:00",
        "meta_object_name": "FORMOSAT-5",
        "meta_object_id": "2017-049A",
        "meta_epoch": "2025-12-20T13:35:01.911840",
        "meta_mean_motion": 14.5076471,
        "meta_eccentricity": 0.00098308,
        "meta_inclination": 98.2444,
        "meta_ra_of_asc_node": 68.728,
        "meta_arg_of_pericenter": 274.899,
        "meta_mean_anomaly": 85.1083,
        "meta_ephemeris_type": 0,
        "meta_classification_type": "U",
        "meta_norad_cat_id": 42920,
        "meta_element_set_no": 999,
        "meta_rev_at_epoch": 44077,
        "meta_bstar": 4.5628392e-05,
        "meta_mean_motion_dot": 1.36e-06,
        "meta_mean_motion_ddot": 0,
        "tle_line1": "1 42920U 17049A   25354.56599435  .00000136  00000+0  45628-4 0  9991",
        "tle_line2": "2 42920  98.2444  68.7280 0009830 274.8990  85.1083 14.50764710440772"
      },
      "geometry": {
        "type": "Point",
        "coordinates": [
          50.07282488042677,
          65.8540857844707
        ]
      }
    },
    {
      "type": "Feature",
      "properties": {
        "norad_id": 42969,
        "name": "SENTINEL-5P",
        "group": "resource",
        "lat": -79.34051320407421,
        "lon": -11.508877304747285,
        "alt_km": 835.0251996060415,
        "timestamp": "2025-12-20T18:51:31.375539+00:00",
        "meta_object_name": "SENTINEL-5P",
        "meta_object_id": "2017-064A",
        "meta_epoch": "2025-12-20T14:10:43.304736",
        "meta_mean_motion": 14.19519252,
        "meta_eccentricity": 0.00010139,
        "meta_inclination": 98.7796,
        "meta_ra_of_asc_node": 293.1056,
        "meta_arg_of_pericenter": 90.7086,
        "meta_mean_anomaly": 269.4206,
        "meta_ephemeris_type": 0,
        "meta_classification_type": "U",
        "meta_norad_cat_id": 42969,
        "meta_element_set_no": 999,
        "meta_rev_at_epoch": 42422,
        "meta_bstar": 4.1116417e-05,
        "meta_mean_motion_dot": 4.2e-07,
        "meta_mean_motion_ddot": 0,
        "tle_line1": "1 42969U 17064A   25354.59077899  .00000042  00000+0  41116-4 0  9993",
        "tle_line2": "2 42969  98.7796 293.1056 0001013  90.7086 269.4206 14.19519252424221"
      },
      "geometry": {
        "type": "Point",
        "coordinates": [
          -11.508877304747285,
          -79.34051320407421
        ]
      }
    },
    {
      "type": "Feature",
      "properties": {
        "norad_id": 42987,
        "name": "SKYSAT-C11",
        "group": "resource",
        "lat": 45.46896961330064,
        "lon": -39.91443346319877,
        "alt_km": 418.7781390354694,
        "timestamp": "2025-12-20T18:51:31.375550+00:00",
        "meta_object_name": "SKYSAT-C11",
        "meta_object_id": "2017-068A",
        "meta_epoch": "2025-12-20T15:10:43.287744",
        "meta_mean_motion": 15.47758903,
        "meta_eccentricity": 0.00011683,
        "meta_inclination": 97.4146,
        "meta_ra_of_asc_node": 132.3213,
        "meta_arg_of_pericenter": 98.5219,
        "meta_mean_anomaly": 261.6163,
        "meta_ephemeris_type": 0,
        "meta_classification_type": "U",
        "meta_norad_cat_id": 42987,
        "meta_element_set_no": 999,
        "meta_rev_at_epoch": 45553,
        "meta_bstar": 0.00031043229,
        "meta_mean_motion_dot": 0.00016006,
        "meta_mean_motion_ddot": 0,
        "tle_line1": "1 42987U 17068A   25354.63244546  .00016006  00000+0  31043-3 0  9991",
        "tle_line2": "2 42987  97.4146 132.3213 0001168  98.5219 261.6163 15.47758903455534"
      },
      "geometry": {
        "type": "Point",
        "coordinates": [
          -39.91443346319877,
          45.46896961330064
        ]
      }
    },
    {
      "type": "Feature",
      "properties": {
        "norad_id": 42988,
        "name": "SKYSAT-C10",
        "group": "resource",
        "lat": 52.164090716234846,
        "lon": -44.671911499330236,
        "alt_km": 461.7943384879227,
        "timestamp": "2025-12-20T18:51:31.375560+00:00",
        "meta_object_name": "SKYSAT-C10",
        "meta_object_id": "2017-068B",
        "meta_epoch": "2025-12-20T15:10:17.218272",
        "meta_mean_motion": 15.32217911,
        "meta_eccentricity": 0.00054114,
        "meta_inclination": 97.4265,
        "meta_ra_of_asc_node": 125.5057,
        "meta_arg_of_pericenter": 82.0101,
        "meta_mean_anomaly": 278.1755,
        "meta_ephemeris_type": 0,
        "meta_classification_type": "U",
        "meta_norad_cat_id": 42988,
        "meta_element_set_no": 999,
        "meta_rev_at_epoch": 45500,
        "meta_bstar": 0.00024723858,
        "meta_mean_motion_dot": 7.615e-05,
        "meta_mean_motion_ddot": 0,
        "tle_line1": "1 42988U 17068B   25354.63214373  .00007615  00000+0  24724-3 0  9991",
        "tle_line2": "2 42988  97.4265 125.5057 0005411  82.0101 278.1755 15.32217911455005"
      },
      "geometry": {
        "type": "Point",
        "coordinates": [
          -44.671911499330236,
          52.164090716234846
        ]
      }
    }
  ]
}